{
    "links": {
        "self": "http://www.neowsapp.com/rest/v1/neo/3888753?api_key=iIulBulltgU6a56xZRHN4H3l9WmuAYTsLGpBGhQ2"
    },
    "id": "3888753",
    "neo_reference_id": "3888753",
    "name": "(2019 UJ12)",
    "designation": "2019 UJ12",
    "nasa_jpl_url": "http://ssd.jpl.nasa.gov/sbdb.cgi?sstr=3888753",
    "absolute_magnitude_h": 22.4,
    "estimated_diameter": {
        "kilometers": {
            "estimated_diameter_min": 0.0880146521,
            "estimated_diameter_max": 0.1968067451
        },
        "meters": {
            "estimated_diameter_min": 88.0146520901,
            "estimated_diameter_max": 196.8067450894
        },
        "miles": {
            "estimated_diameter_min": 0.0546897524,
            "estimated_diameter_max": 0.122290004
        },
        "feet": {
            "estimated_diameter_min": 288.7619911632,
            "estimated_diameter_max": 645.6914415591
        }
    },
    "is_potentially_hazardous_asteroid": false,
    "close_approach_data": [
        {
            "close_approach_date": "1941-08-07",
            "close_approach_date_full": "1941-Aug-07 02:18",
            "epoch_date_close_approach": -896305320000,
            "relative_velocity": {
                "kilometers_per_second": "13.2264559174",
                "kilometers_per_hour": "47615.241302743",
                "miles_per_hour": "29586.259241696"
            },
            "miss_distance": {
                "astronomical": "1.4803353768",
                "lunar": "575.8504615752",
                "kilometers": "221455019.254927416",
                "miles": "137605768.1007577008"
            },
            "orbiting_body": "Juptr"
        },
        {
            "close_approach_date": "1953-05-06",
            "close_approach_date_full": "1953-May-06 00:25",
            "epoch_date_close_approach": -525656100000,
            "relative_velocity": {
                "kilometers_per_second": "10.9611119229",
                "kilometers_per_hour": "39460.0029224508",
                "miles_per_hour": "24518.9112603417"
            },
            "miss_distance": {
                "astronomical": "1.3258576788",
                "lunar": "515.7586370532",
                "kilometers": "198345484.671624156",
                "miles": "123246169.1741431128"
            },
            "orbiting_body": "Juptr"
        },
        {
            "close_approach_date": "2019-10-26",
            "close_approach_date_full": "2019-Oct-26 22:02",
            "epoch_date_close_approach": 1572127320000,
            "relative_velocity": {
                "kilometers_per_second": "39.5353403795",
                "kilometers_per_hour": "142327.2253661579",
                "miles_per_hour": "88436.6028948774"
            },
            "miss_distance": {
                "astronomical": "0.0183944539",
                "lunar": "7.1554425671",
                "kilometers": "2751771.123253193",
                "miles": "1709871.2882043434"
            },
            "orbiting_body": "Earth"
        },
        {
            "close_approach_date": "2024-08-05",
            "close_approach_date_full": "2024-Aug-05 05:30",
            "epoch_date_close_approach": 1722835800000,
            "relative_velocity": {
                "kilometers_per_second": "12.5159827214",
                "kilometers_per_hour": "45057.5377970188",
                "miles_per_hour": "27997.0017494865"
            },
            "miss_distance": {
                "astronomical": "1.4384671102",
                "lunar": "559.5637058678",
                "kilometers": "215191615.750975274",
                "miles": "133713869.6331318212"
            },
            "orbiting_body": "Juptr"
        },
        {
            "close_approach_date": "2087-10-14",
            "close_approach_date_full": "2087-Oct-14 12:10",
            "epoch_date_close_approach": 3716971800000,
            "relative_velocity": {
                "kilometers_per_second": "31.1479935434",
                "kilometers_per_hour": "112132.7767560942",
                "miles_per_hour": "69674.9467571409"
            },
            "miss_distance": {
                "astronomical": "0.3019610539",
                "lunar": "117.4628499671",
                "kilometers": "45172730.486395193",
                "miles": "28069033.1458839434"
            },
            "orbiting_body": "Earth"
        }
    ],
    "orbital_data": {
        "orbit_id": "5",
        "orbit_determination_date": "2019-11-25 04:55:06",
        "first_observation_date": "2019-10-28",
        "last_observation_date": "2019-11-19",
        "data_arc_in_days": 22,
        "observations_used": 68,
        "orbit_uncertainty": "8",
        "minimum_orbit_intersection": ".0114015",
        "jupiter_tisserand_invariant": "2.549",
        "epoch_osculation": "2458786.5",
        "eccentricity": ".9434613547562284",
        "semi_major_axis": "2.423132147430439",
        "inclination": "27.49004904248025",
        "ascending_node_longitude": "211.0545156276762",
        "orbital_period": "1377.729875280192",
        "perihelion_distance": ".1370006088623481",
        "perihelion_argument": "40.55545945610113",
        "aphelion_distance": "4.709263685998531",
        "perihelion_time": "2458748.937736473223",
        "mean_anomaly": "9.814997201022178",
        "mean_motion": ".2612994074232338",
        "equinox": "J2000",
        "orbit_class": {
            "orbit_class_type": "APO",
            "orbit_class_description": "Near-Earth asteroid orbits which cross the Earth’s orbit similar to that of 1862 Apollo",
            "orbit_class_range": "a (semi-major axis) > 1.0 AU; q (perihelion) < 1.017 AU"
        }
    },
    "is_sentry_object": false
}